NORAD_CAT_ID,OBJECT_NAME,OBJECT_TYPE,EPOCH,MEAN_MOTION,ECCENTRICITY,INCLINATION,RA_OF_ASC_NODE,ARG_OF_PERICENTER,MEAN_ANOMALY,BSTAR,MEAN_MOTION_DOT,MEAN_MOTION_DDOT,TLE_LINE0,TLE_LINE1,TLE_LINE2,SEMIMAJOR_AXIS,PERIOD,APOGEE,PERIGEE,DECAYED
53890.0,STARLINK-5050,PAYLOAD,2023-01-17 20:43:35,15.64784367,0.000106,53.2117,43.0496,144.4168,215.6919,-0.0048012,-0.00451345,0.0,0 STARLINK-5050,1 53890U 22119E   23017.86360207 -.00451345  00000-0 -48012-2 0  9996,2 53890  53.2117  43.0496 0001060 144.4168 215.6919 15.64784367 18965,6751.996,92.025,374.577,373.145,0.0
53890.0,STARLINK-5050,PAYLOAD,2023-01-18 06:00:00,15.62971018,0.0001215,53.2116,41.166,89.89399999999999,286.1046,-0.011132,-0.00933458,0.0,0 STARLINK-5050,1 53890U 22119E   23018.25001157 -.00933458  00000-0 -11132-1 0  9998,2 53890  53.2116  41.1660 0001215  89.8940 286.1046 15.62971018 18590,6757.217,92.132,379.903,378.261,0.0
53890.0,STARLINK-5050,PAYLOAD,2023-01-18 14:00:01,15.62319607,0.0001225,53.211000000000006,39.5427,78.208,14.0132,-0.011257,-0.00921246,0.0,0 STARLINK-5050,1 53890U 22119E   23018.58334491 -.00921246  00000-0 -11257-1 0  9994,2 53890  53.2110  39.5427 0001225  78.2080  14.0132 15.62319607  1309,6759.096,92.171,381.789,380.133,0.0
53890.0,STARLINK-5050,PAYLOAD,2023-01-18 22:00:00,15.61637107,0.0001266,53.2109,37.9185,96.9468,70.7319,-0.010904,-0.00873304,0.0,0 STARLINK-5050,1 53890U 22119E   23018.91667824 -.00873304  00000-0 -10904-1 0  9999,2 53890  53.2109  37.9185 0001266  96.9468  70.7319 15.61637107  1305,6761.065,92.211,383.786,382.074,0.0
53890.0,STARLINK-5050,PAYLOAD,2023-01-19 14:00:01,15.60378756,0.0001078,53.2108,34.6803,88.6658,227.5388,-0.012406,-0.00939473,0.0,0 STARLINK-5050,1 53890U 22119E   23019.58334491 -.00939473  00000-0 -12406-1 0  9993,2 53890  53.2108  34.6803 0001078  88.6658 227.5388 15.60378756 18807,6764.6990000000005,92.285,387.293,385.835,0.0
53890.0,STARLINK-5050,PAYLOAD,2023-01-20 16:00:00,15.58268227,0.0001056,53.2112,29.4276,91.7558,189.16,-0.01374,-0.00957745,0.0,0 STARLINK-5050,1 53890U 22119E   23020.66667824 -.00957745  00000-0 -13740-1 0  9997,2 53890  53.2112  29.4276 0001056  91.7558 189.1600 15.58268227  1303,6770.806,92.41,393.386,391.956,0.0
53890.0,STARLINK-5050,PAYLOAD,2023-01-20 22:00:00,15.57734639,0.0001302,53.211000000000006,28.2168,99.392,144.5244,-0.012641,-0.00871652,0.0,0 STARLINK-5050,1 53890U 22119E   23020.91667824 -.00871652  00000-0 -12641-1 0  9996,2 53890  53.2110  28.2168 0001302  99.3920 144.5244 15.57734639 19019,6772.352,92.442,395.099,393.335,0.0
53890.0,STARLINK-5050,PAYLOAD,2023-01-21 14:00:01,15.56480496,9.76e-05,53.2102,24.9972,84.863,298.1944,-0.014629,-0.009536,0.0,0 STARLINK-5050,1 53890U 22119E   23021.58334491 -.00953600  00000-0 -14629-1 0  9993,2 53890  53.2102  24.9972 0000976  84.8630 298.1944 15.56480496 19122,6775.9890000000005,92.516,398.516,397.193,0.0
53890.0,STARLINK-5050,PAYLOAD,2023-01-22 06:00:00,15.55137837,0.000129,53.2104,21.7822,88.8128,70.2861,-0.014408,-0.00898805,0.0,0 STARLINK-5050,1 53890U 22119E   23022.25001157 -.00898805  00000-0 -14408-1 0  9998,2 53890  53.2104  21.7822 0001290  88.8128  70.2861 15.55137837 19224,6779.889,92.596,402.629,400.879,0.0
53890.0,STARLINK-5050,PAYLOAD,2023-01-23 06:00:02,15.53183266,0.0001234,53.2112,16.9712,79.0568,278.2782,-0.0153789999999999,-0.00893336,0.0,0 STARLINK-5050,1 53890U 22119E   23023.25002315 -.00893336  00000-0 -15379-1 0  9998,2 53890  53.2112  16.9712 0001234  79.0568 278.2782 15.53183266 19378,6785.576,92.713,408.278,406.603,0.0
53890.0,STARLINK-5050,PAYLOAD,2023-01-23 22:00:00,15.51889466,0.0001359,53.2115,13.7702,82.9486,42.5188,-0.016084,-0.00891585,0.0,0 STARLINK-5050,1 53890U 22119E   23023.91667824 -.00891585  00000-0 -16084-1 0  9991,2 53890  53.2115  13.7702 0001359  82.9486  42.5188 15.51889466 19482,6789.347,92.79,412.134,410.289,0.0
53890.0,STARLINK-5050,PAYLOAD,2023-01-24 14:00:01,15.50569198,0.0001479,53.2115,10.5785,76.9666,173.581,-0.0158759999999999,-0.0084369,0.0,0 STARLINK-5050,1 53890U 22119E   23024.58334491 -.00843690  00000-0 -15876-1 0  9998,2 53890  53.2115  10.5785 0001479  76.9666 173.5810 15.50569198 19588,6793.2,92.869,416.07,414.06,0.0
53890.0,STARLINK-5050,PAYLOAD,2023-01-24 22:00:00,15.49873442,0.0001669,53.2125,8.9833,88.1939,223.7155,0.00064073,0.00036066,0.0,0 STARLINK-5050,1 53890U 22119E   23024.91667824  .00036066  00000-0  64073-3 0  9998,2 53890  53.2125   8.9833 0001669  88.1939 223.7155 15.49873442 19637,6795.233,92.911,418.232,415.964,0.0
53890.0,STARLINK-5050,PAYLOAD,2023-01-25 14:00:01,15.49910652,0.0001574,53.2136,5.7982,85.4057,348.3303,-0.00068974,-0.00039438,0.0,0 STARLINK-5050,1 53890U 22119E   23025.58334491 -.00039438  00000-0 -68974-3 0  9995,2 53890  53.2136   5.7982 0001574  85.4057 348.3303 15.49910652 19741,6795.124,92.909,418.059,415.92,0.0
53890.0,STARLINK-5050,PAYLOAD,2023-01-25 22:00:00,15.49860059,0.0001588999999999,53.2145,4.2039,98.5108,36.1501,0.00058778,0.0003302,0.0,0 STARLINK-5050,1 53890U 22119E   23025.91667824  .00033020  00000-0  58778-3 0  9991,2 53890  53.2145   4.2039 0001589  98.5108  36.1501 15.49860059  1306,6795.272,92.912,418.217,416.057,0.0
53890.0,STARLINK-5050,PAYLOAD,2023-01-26 14:00:01,15.49652076,0.0001348,53.2147,1.019,97.0418,159.3572,-0.019062,-0.00981388,0.0,0 STARLINK-5050,1 53890U 22119E   23026.58334491 -.00981388  00000-0 -19062-1 0  9998,2 53890  53.2147   1.0190 0001348  97.0418 159.3572 15.49652076 19899,6795.88,92.924,418.661,416.829,0.0
53890.0,STARLINK-5050,PAYLOAD,2023-01-27 06:00:00,15.48300993,0.0001255,53.215,357.8381,78.587,297.4254,-0.018193,-0.00899764,0.0,0 STARLINK-5050,1 53890U 22119E   23027.25001157 -.00899764  00000-0 -18193-1 0  9993,2 53890  53.2150 357.8381 0001255  78.5870 297.4254 15.48300993 20003,6799.8330000000005,93.005,422.551,420.845,0.0
53890.0,STARLINK-5050,PAYLOAD,2023-01-27 14:00:01,15.47673701,0.000129,53.2149,356.2485,84.0836,350.5508,-0.019597,-0.0094417,0.0,0 STARLINK-5050,1 53890U 22119E   23027.58334491 -.00944170  00000-0 -19597-1 0  9990,2 53890  53.2149 356.2485 0001290  84.0836 350.5508 15.47673701  1306,6801.67,93.043,424.413,422.658,0.0
53890.0,STARLINK-5050,PAYLOAD,2023-01-27 22:00:00,15.47022037,0.0001484,53.215,354.6607,96.6495,35.8226,-0.019658,-0.00927294,0.0,0 STARLINK-5050,1 53890U 22119E   23027.91667824 -.00927294  00000-0 -19658-1 0  9992,2 53890  53.2150 354.6607 0001484  96.6495  35.8226 15.47022037 20100,6803.58,93.082,426.455,424.436,0.0
53890.0,STARLINK-5050,PAYLOAD,2023-01-28 14:00:01,15.45718659,0.0001306,53.2143,351.4921,96.1112,149.708,-0.020908,-0.00941357,0.0,0 STARLINK-5050,1 53890U 22119E   23028.58334491 -.00941357  00000-0 -20908-1 0  9993,2 53890  53.2143 351.4921 0001306  96.1112 149.7080 15.45718659  1304,6807.404,93.161,430.158,428.38,0.0
53890.0,STARLINK-5050,PAYLOAD,2023-01-28 22:00:00,15.45067682,0.0001309,53.2143,349.9092,100.0169,201.2933,-0.020976,-0.00924901,0.0,0 STARLINK-5050,1 53890U 22119E   23028.91667824 -.00924901  00000-0 -20976-1 0  9990,2 53890  53.2143 349.9092 0001309 100.0169 201.2933 15.45067682 20254,6809.316,93.2,432.073,430.29,0.0
53890.0,STARLINK-5050,PAYLOAD,2023-01-29 22:00:01,15.43115996,0.000129,53.2139,345.1713,91.8954,11.2766,-0.022546,-0.00929613,0.0,0 STARLINK-5050,1 53890U 22119E   23029.91668981 -.00929613  00000-0 -22546-1 0  9996,2 53890  53.2139 345.1713 0001290  91.8954  11.2766 15.43115996 20416,6815.056,93.318,437.801,436.042,0.0
53890.0,STARLINK-5050,PAYLOAD,2023-01-30 14:00:01,15.41800638,0.0001266,53.214,342.0209,90.9886,116.0812,-0.023336,-0.00921126,0.0,0 STARLINK-5050,1 53890U 22119E   23030.58334491 -.00921126  00000-0 -23336-1 0  9996,2 53890  53.2140 342.0209 0001266  90.9886 116.0812 15.41800638  1306,6818.932,93.397,441.66,439.934,0.0
53890.0,STARLINK-5050,PAYLOAD,2023-01-31 00:00:00,15.41011323,0.0001182,53.2142,340.055,93.8161,266.6259,-0.025067,-0.00960026,0.0,0 STARLINK-5050,1 53890U 22119E   23031.00001157 -.00960026  00000-0 -25067-1 0  9999,2 53890  53.2142 340.0550 0001182  93.8161 266.6259 15.41011323  1313,6821.26,93.445,443.932,442.319,0.0
53890.0,STARLINK-5050,PAYLOAD,2023-01-31 06:00:00,15.40467472,0.0001249,53.2144,338.8777,88.1703,219.7278,-0.022603,-0.00858382,0.0,0 STARLINK-5050,1 53890U 22119E   23031.25001157 -.00858382  00000-0 -22603-1 0  9990,2 53890  53.2144 338.8777 0001249  88.1703 219.7278 15.40467472 20617,6822.866,93.478,445.583,443.878,0.0
53890.0,STARLINK-5050,PAYLOAD,2023-01-31 14:00:01,15.39844953,0.0001162,53.2145,337.306,92.3964,264.736,-0.024759,-0.00915952,0.0,0 STARLINK-5050,1 53890U 22119E   23031.58334491 -.00915952  00000-0 -24759-1 0  9997,2 53890  53.2145 337.3060 0001162  92.3964 264.7360 15.39844953 20676,6824.704,93.516,447.362,445.776,0.0
53890.0,STARLINK-5050,PAYLOAD,2023-01-31 22:00:00,15.39219975,0.0001203,53.2147,335.7375,92.1858,313.3911,-0.026302,-0.00950016,0.0,0 STARLINK-5050,1 53890U 22119E   23031.91667824 -.00950016  00000-0 -26302-1 0  9999,2 53890  53.2147 335.7375 0001203  92.1858 313.3911 15.39219975  1307,6826.552,93.554,449.238,447.595,0.0
53890.0,STARLINK-5050,PAYLOAD,2023-02-01 14:00:01,15.37880967,0.0001237,53.2149,332.6052,86.711,53.4465,-0.0258,-0.00896354,0.0,0 STARLINK-5050,1 53890U 22119E   23032.58334491 -.00896354  00000-0 -25800-1 0  9990,2 53890  53.2149 332.6052 0001237  86.7110  53.4465 15.37880967 20821,6830.514,93.635,453.224,451.534,0.0
53890.0,STARLINK-5050,PAYLOAD,2023-02-02 06:00:00,15.36562505,0.0001296,53.215,329.4808,83.6172,147.975,-0.025621,-0.00856022,0.0,0 STARLINK-5050,1 53890U 22119E   23033.25001157 -.00856022  00000-0 -25621-1 0  9994,2 53890  53.2150 329.4808 0001296  83.6172 147.9750 15.36562505 20926,6834.42,93.716,457.171,455.4,0.0
53890.0,STARLINK-5050,PAYLOAD,2023-02-02 14:00:01,15.35923137,0.0001257,53.2149,327.9184,93.1698,182.9701,-0.027199,-0.00887437,0.0,0 STARLINK-5050,1 53890U 22119E   23033.58334491 -.00887437  00000-0 -27199-1 0  9996,2 53890  53.2149 327.9184 0001257  93.1698 182.9701 15.35923137  1307,6836.317,93.755,459.041,457.323,0.0
